ORBCOMM FM114           
1 41179U 15081A   25216.92267701  .00000461  00000+0  13539-3 0  9991
2 41179  47.0034  56.6557 0002351 220.6395 139.4315 14.58271225511587
ORBCOMM FM119           
1 41180U 15081B   25216.63886710  .00000484  00000+0  14037-3 0  9997
2 41180  47.0020 327.3231 0001911 262.3346  97.7322 14.58203289512794
ORBCOMM FM105           
1 41181U 15081C   25216.75325181  .00000218  00000+0  10627-3 0  9997
2 41181  47.0031 336.4521 0002095 196.9812 163.0998 14.45251985507774
ORBCOMM FM118           
1 41183U 15081E   25216.94685327  .00000580  00000+0  16091-3 0  9994
2 41183  47.0046  56.3264 0002701  10.3479 349.7461 14.58257455511568
ORBCOMM FM112           
1 41184U 15081F   25216.68061211  .00000788  00000+0  20519-3 0  9996
2 41184  47.0005 326.2370 0002220 221.3137 138.7581 14.58331312512747
